<?xml version="1.0" encoding="UTF-8"?>
<q:quakeml xmlns="http://quakeml.org/xmlns/bed/1.2" xmlns:q="http://quakeml.org/xmlns/quakeml/1.2">
    <eventParameters publicID="smi:org.gfz-potsdam.de/geofon/EventParameters">
        <event publicID="smi:ippg_nsk.ippg.org/event/ipggsbrasippg2021gczgx">
            <typeCertainty>known</typeCertainty>
            <creationInfo>
                <agencyID>IPGGSBRAS</agencyID>
                <creationTime>2022-04-30T17:15:00.0000Z</creationTime>
            </creationInfo>
            <magnitude publicID="smi:ippg_nsk.ippg.org/magnitude/ipggsbrasippg2021gczgx/ml">
                <creationInfo>
                    <agencyID>ipggsbras</agencyID>
                    <creationTime>2022-04-30T17:15:00.0000Z</creationTime>
                </creationInfo>
                <mag>
                    <value>3.4</value>
                </mag>
                <type>ml</type>
                <originID>smi:ippg_nsk.ippg.org/origin/ipggsbrasippg2021gczgx</originID>
            </magnitude>
            <origin publicID="smi:ippg_nsk.ippg.org/origin/ipggsbrasippg2021gczgx">
                <arrival
                        publicID="smi:org.gfz-potsdam.de/geofon/smi:ippg_nsk.ippg.org/pick/S/ipggsbrasippg2021gczgx/KAW4162.HHZ_smi_ippg_nsk.ippg.org/origin/ipggsbrasippg2021gczgx">
                    <azimuth>184.29</azimuth>
                    <distance>1.99949</distance>
                    <pickID>smi:ippg_nsk.ippg.org/pick/S/ipggsbrasippg2021gczgx/KAW4162.HHZ</pickID>
                    <phase>S</phase>
                </arrival>
                <arrival
                        publicID="smi:org.gfz-potsdam.de/geofon/smi:ippg_nsk.ippg.org/pick/S/ipggsbrasippg2021gczgx/KAW4162.HHN_smi_ippg_nsk.ippg.org/origin/ipggsbrasippg2021gczgx">
                    <azimuth>184.29</azimuth>
                    <distance>1.99949</distance>
                    <pickID>smi:ippg_nsk.ippg.org/pick/S/ipggsbrasippg2021gczgx/KAW4162.HHN</pickID>
                    <phase>S</phase>
                </arrival>
                <arrival
                        publicID="smi:org.gfz-potsdam.de/geofon/smi:ippg_nsk.ippg.org/pick/S/ipggsbrasippg2021gczgx/KAW4162.HHE_smi_ippg_nsk.ippg.org/origin/ipggsbrasippg2021gczgx">
                    <azimuth>184.29</azimuth>
                    <distance>1.99949</distance>
                    <pickID>smi:ippg_nsk.ippg.org/pick/S/ipggsbrasippg2021gczgx/KAW4162.HHE</pickID>
                    <phase>S</phase>
                </arrival>
                <arrival
                        publicID="smi:org.gfz-potsdam.de/geofon/smi:ippg_nsk.ippg.org/pick/S/ipggsbrasippg2021gczgx/KAW3657.HHE_smi_ippg_nsk.ippg.org/origin/ipggsbrasippg2021gczgx">
                    <azimuth>184.29</azimuth>
                    <distance>1.99949</distance>
                    <pickID>smi:ippg_nsk.ippg.org/pick/S/ipggsbrasippg2021gczgx/KAW3657.HHE</pickID>
                    <phase>S</phase>
                </arrival>
                <arrival
                        publicID="smi:org.gfz-potsdam.de/geofon/smi:ippg_nsk.ippg.org/pick/S/ipggsbrasippg2021gczgx/KAW3657.HHZ_smi_ippg_nsk.ippg.org/origin/ipggsbrasippg2021gczgx">
                    <azimuth>184.29</azimuth>
                    <distance>1.99949</distance>
                    <pickID>smi:ippg_nsk.ippg.org/pick/S/ipggsbrasippg2021gczgx/KAW3657.HHZ</pickID>
                    <phase>S</phase>
                </arrival>
                <arrival
                        publicID="smi:org.gfz-potsdam.de/geofon/smi:ippg_nsk.ippg.org/pick/S/ipggsbrasippg2021gczgx/KAW3657.HHN_smi_ippg_nsk.ippg.org/origin/ipggsbrasippg2021gczgx">
                    <azimuth>184.29</azimuth>
                    <distance>1.99949</distance>
                    <pickID>smi:ippg_nsk.ippg.org/pick/S/ipggsbrasippg2021gczgx/KAW3657.HHN</pickID>
                    <phase>S</phase>
                </arrival>
                <arrival
                        publicID="smi:org.gfz-potsdam.de/geofon/smi:ippg_nsk.ippg.org/pick/S/ipggsbrasippg2021gczgx/KAST007.HHZ_smi_ippg_nsk.ippg.org/origin/ipggsbrasippg2021gczgx">
                    <azimuth>152.194</azimuth>
                    <distance>6.7378</distance>
                    <pickID>smi:ippg_nsk.ippg.org/pick/S/ipggsbrasippg2021gczgx/KAST007.HHZ</pickID>
                    <phase>S</phase>
                </arrival>
                <arrival
                        publicID="smi:org.gfz-potsdam.de/geofon/smi:ippg_nsk.ippg.org/pick/S/ipggsbrasippg2021gczgx/KAST007.HHN_smi_ippg_nsk.ippg.org/origin/ipggsbrasippg2021gczgx">
                    <azimuth>152.194</azimuth>
                    <distance>6.7378</distance>
                    <pickID>smi:ippg_nsk.ippg.org/pick/S/ipggsbrasippg2021gczgx/KAST007.HHN</pickID>
                    <phase>S</phase>
                </arrival>
                <arrival
                        publicID="smi:org.gfz-potsdam.de/geofon/smi:ippg_nsk.ippg.org/pick/S/ipggsbrasippg2021gczgx/KAST007.HHE_smi_ippg_nsk.ippg.org/origin/ipggsbrasippg2021gczgx">
                    <azimuth>152.194</azimuth>
                    <distance>6.7378</distance>
                    <pickID>smi:ippg_nsk.ippg.org/pick/S/ipggsbrasippg2021gczgx/KAST007.HHE</pickID>
                    <phase>S</phase>
                </arrival>
                <arrival
                        publicID="smi:org.gfz-potsdam.de/geofon/smi:ippg_nsk.ippg.org/pick/S/ipggsbrasippg2021gczgx/KAST006.HHE_smi_ippg_nsk.ippg.org/origin/ipggsbrasippg2021gczgx">
                    <azimuth>16.3864</azimuth>
                    <distance>2.25033</distance>
                    <pickID>smi:ippg_nsk.ippg.org/pick/S/ipggsbrasippg2021gczgx/KAST006.HHE</pickID>
                    <phase>S</phase>
                </arrival>
                <arrival
                        publicID="smi:org.gfz-potsdam.de/geofon/smi:ippg_nsk.ippg.org/pick/S/ipggsbrasippg2021gczgx/KAST006.HHZ_smi_ippg_nsk.ippg.org/origin/ipggsbrasippg2021gczgx">
                    <azimuth>16.3864</azimuth>
                    <distance>2.25033</distance>
                    <pickID>smi:ippg_nsk.ippg.org/pick/S/ipggsbrasippg2021gczgx/KAST006.HHZ</pickID>
                    <phase>S</phase>
                </arrival>
                <arrival
                        publicID="smi:org.gfz-potsdam.de/geofon/smi:ippg_nsk.ippg.org/pick/S/ipggsbrasippg2021gczgx/KAST006.HHN_smi_ippg_nsk.ippg.org/origin/ipggsbrasippg2021gczgx">
                    <azimuth>16.3864</azimuth>
                    <distance>2.25033</distance>
                    <pickID>smi:ippg_nsk.ippg.org/pick/S/ipggsbrasippg2021gczgx/KAST006.HHN</pickID>
                    <phase>S</phase>
                </arrival>
                <arrival
                        publicID="smi:org.gfz-potsdam.de/geofon/smi:ippg_nsk.ippg.org/pick/S/ipggsbrasippg2021gczgx/KAST005.HHZ_smi_ippg_nsk.ippg.org/origin/ipggsbrasippg2021gczgx">
                    <azimuth>63.9889</azimuth>
                    <distance>8.92023</distance>
                    <pickID>smi:ippg_nsk.ippg.org/pick/S/ipggsbrasippg2021gczgx/KAST005.HHZ</pickID>
                    <phase>S</phase>
                </arrival>
                <arrival
                        publicID="smi:org.gfz-potsdam.de/geofon/smi:ippg_nsk.ippg.org/pick/S/ipggsbrasippg2021gczgx/KAST005.HHN_smi_ippg_nsk.ippg.org/origin/ipggsbrasippg2021gczgx">
                    <azimuth>63.9889</azimuth>
                    <distance>8.92023</distance>
                    <pickID>smi:ippg_nsk.ippg.org/pick/S/ipggsbrasippg2021gczgx/KAST005.HHN</pickID>
                    <phase>S</phase>
                </arrival>
                <arrival
                        publicID="smi:org.gfz-potsdam.de/geofon/smi:ippg_nsk.ippg.org/pick/S/ipggsbrasippg2021gczgx/KAST005.HHE_smi_ippg_nsk.ippg.org/origin/ipggsbrasippg2021gczgx">
                    <azimuth>63.9889</azimuth>
                    <distance>8.92023</distance>
                    <pickID>smi:ippg_nsk.ippg.org/pick/S/ipggsbrasippg2021gczgx/KAST005.HHE</pickID>
                    <phase>S</phase>
                </arrival>
                <arrival
                        publicID="smi:org.gfz-potsdam.de/geofon/smi:ippg_nsk.ippg.org/pick/S/ipggsbrasippg2021gczgx/KAST004.HHE_smi_ippg_nsk.ippg.org/origin/ipggsbrasippg2021gczgx">
                    <azimuth>198.881</azimuth>
                    <distance>12.3983</distance>
                    <pickID>smi:ippg_nsk.ippg.org/pick/S/ipggsbrasippg2021gczgx/KAST004.HHE</pickID>
                    <phase>S</phase>
                </arrival>
                <arrival
                        publicID="smi:org.gfz-potsdam.de/geofon/smi:ippg_nsk.ippg.org/pick/S/ipggsbrasippg2021gczgx/KAST004.HHZ_smi_ippg_nsk.ippg.org/origin/ipggsbrasippg2021gczgx">
                    <azimuth>198.881</azimuth>
                    <distance>12.3983</distance>
                    <pickID>smi:ippg_nsk.ippg.org/pick/S/ipggsbrasippg2021gczgx/KAST004.HHZ</pickID>
                    <phase>S</phase>
                </arrival>
                <arrival
                        publicID="smi:org.gfz-potsdam.de/geofon/smi:ippg_nsk.ippg.org/pick/S/ipggsbrasippg2021gczgx/KAST004.HHN_smi_ippg_nsk.ippg.org/origin/ipggsbrasippg2021gczgx">
                    <azimuth>198.881</azimuth>
                    <distance>12.3983</distance>
                    <pickID>smi:ippg_nsk.ippg.org/pick/S/ipggsbrasippg2021gczgx/KAST004.HHN</pickID>
                    <phase>S</phase>
                </arrival>
                <arrival
                        publicID="smi:org.gfz-potsdam.de/geofon/smi:ippg_nsk.ippg.org/pick/S/ipggsbrasippg2021gczgx/KAST003.HHZ_smi_ippg_nsk.ippg.org/origin/ipggsbrasippg2021gczgx">
                    <azimuth>239.982</azimuth>
                    <distance>11.5582</distance>
                    <pickID>smi:ippg_nsk.ippg.org/pick/S/ipggsbrasippg2021gczgx/KAST003.HHZ</pickID>
                    <phase>S</phase>
                </arrival>
                <arrival
                        publicID="smi:org.gfz-potsdam.de/geofon/smi:ippg_nsk.ippg.org/pick/S/ipggsbrasippg2021gczgx/KAST003.HHN_smi_ippg_nsk.ippg.org/origin/ipggsbrasippg2021gczgx">
                    <azimuth>239.982</azimuth>
                    <distance>11.5582</distance>
                    <pickID>smi:ippg_nsk.ippg.org/pick/S/ipggsbrasippg2021gczgx/KAST003.HHN</pickID>
                    <phase>S</phase>
                </arrival>
                <arrival
                        publicID="smi:org.gfz-potsdam.de/geofon/smi:ippg_nsk.ippg.org/pick/S/ipggsbrasippg2021gczgx/KAST003.HHE_smi_ippg_nsk.ippg.org/origin/ipggsbrasippg2021gczgx">
                    <azimuth>239.982</azimuth>
                    <distance>11.5582</distance>
                    <pickID>smi:ippg_nsk.ippg.org/pick/S/ipggsbrasippg2021gczgx/KAST003.HHE</pickID>
                    <phase>S</phase>
                </arrival>
                <arrival
                        publicID="smi:org.gfz-potsdam.de/geofon/smi:ippg_nsk.ippg.org/pick/S/ipggsbrasippg2021gczgx/KAST002.HHZ_smi_ippg_nsk.ippg.org/origin/ipggsbrasippg2021gczgx">
                    <azimuth>292.031</azimuth>
                    <distance>11.4289</distance>
                    <pickID>smi:ippg_nsk.ippg.org/pick/S/ipggsbrasippg2021gczgx/KAST002.HHZ</pickID>
                    <phase>S</phase>
                </arrival>
                <arrival
                        publicID="smi:org.gfz-potsdam.de/geofon/smi:ippg_nsk.ippg.org/pick/S/ipggsbrasippg2021gczgx/KAST002.HHN_smi_ippg_nsk.ippg.org/origin/ipggsbrasippg2021gczgx">
                    <azimuth>292.031</azimuth>
                    <distance>11.4289</distance>
                    <pickID>smi:ippg_nsk.ippg.org/pick/S/ipggsbrasippg2021gczgx/KAST002.HHN</pickID>
                    <phase>S</phase>
                </arrival>
                <arrival
                        publicID="smi:org.gfz-potsdam.de/geofon/smi:ippg_nsk.ippg.org/pick/S/ipggsbrasippg2021gczgx/KAST002.HHE_smi_ippg_nsk.ippg.org/origin/ipggsbrasippg2021gczgx">
                    <azimuth>292.031</azimuth>
                    <distance>11.4289</distance>
                    <pickID>smi:ippg_nsk.ippg.org/pick/S/ipggsbrasippg2021gczgx/KAST002.HHE</pickID>
                    <phase>S</phase>
                </arrival>
                <arrival
                        publicID="smi:org.gfz-potsdam.de/geofon/smi:ippg_nsk.ippg.org/pick/S/ipggsbrasippg2021gczgx/KAST001.HHE_smi_ippg_nsk.ippg.org/origin/ipggsbrasippg2021gczgx">
                    <azimuth>270.973</azimuth>
                    <distance>13.2346</distance>
                    <pickID>smi:ippg_nsk.ippg.org/pick/S/ipggsbrasippg2021gczgx/KAST001.HHE</pickID>
                    <phase>S</phase>
                </arrival>
                <arrival
                        publicID="smi:org.gfz-potsdam.de/geofon/smi:ippg_nsk.ippg.org/pick/S/ipggsbrasippg2021gczgx/KAST001.HHZ_smi_ippg_nsk.ippg.org/origin/ipggsbrasippg2021gczgx">
                    <azimuth>270.973</azimuth>
                    <distance>13.2346</distance>
                    <pickID>smi:ippg_nsk.ippg.org/pick/S/ipggsbrasippg2021gczgx/KAST001.HHZ</pickID>
                    <phase>S</phase>
                </arrival>
                <arrival
                        publicID="smi:org.gfz-potsdam.de/geofon/smi:ippg_nsk.ippg.org/pick/S/ipggsbrasippg2021gczgx/KAST001.HHN_smi_ippg_nsk.ippg.org/origin/ipggsbrasippg2021gczgx">
                    <azimuth>270.973</azimuth>
                    <distance>13.2346</distance>
                    <pickID>smi:ippg_nsk.ippg.org/pick/S/ipggsbrasippg2021gczgx/KAST001.HHN</pickID>
                    <phase>S</phase>
                </arrival>
                <arrival
                        publicID="smi:org.gfz-potsdam.de/geofon/smi:ippg_nsk.ippg.org/pick/P/ipggsbrasippg2021gczgx/KAW4162.HHE_smi_ippg_nsk.ippg.org/origin/ipggsbrasippg2021gczgx">
                    <azimuth>184.29</azimuth>
                    <distance>1.99949</distance>
                    <pickID>smi:ippg_nsk.ippg.org/pick/P/ipggsbrasippg2021gczgx/KAW4162.HHE</pickID>
                    <phase>P</phase>
                </arrival>
                <arrival
                        publicID="smi:org.gfz-potsdam.de/geofon/smi:ippg_nsk.ippg.org/pick/P/ipggsbrasippg2021gczgx/KAW4162.HHZ_smi_ippg_nsk.ippg.org/origin/ipggsbrasippg2021gczgx">
                    <azimuth>184.29</azimuth>
                    <distance>1.99949</distance>
                    <pickID>smi:ippg_nsk.ippg.org/pick/P/ipggsbrasippg2021gczgx/KAW4162.HHZ</pickID>
                    <phase>P</phase>
                </arrival>
                <arrival
                        publicID="smi:org.gfz-potsdam.de/geofon/smi:ippg_nsk.ippg.org/pick/P/ipggsbrasippg2021gczgx/KAW4162.HHN_smi_ippg_nsk.ippg.org/origin/ipggsbrasippg2021gczgx">
                    <azimuth>184.29</azimuth>
                    <distance>1.99949</distance>
                    <pickID>smi:ippg_nsk.ippg.org/pick/P/ipggsbrasippg2021gczgx/KAW4162.HHN</pickID>
                    <phase>P</phase>
                </arrival>
                <arrival
                        publicID="smi:org.gfz-potsdam.de/geofon/smi:ippg_nsk.ippg.org/pick/P/ipggsbrasippg2021gczgx/KAW3657.HHE_smi_ippg_nsk.ippg.org/origin/ipggsbrasippg2021gczgx">
                    <azimuth>184.29</azimuth>
                    <distance>1.99949</distance>
                    <pickID>smi:ippg_nsk.ippg.org/pick/P/ipggsbrasippg2021gczgx/KAW3657.HHE</pickID>
                    <phase>P</phase>
                </arrival>
                <arrival
                        publicID="smi:org.gfz-potsdam.de/geofon/smi:ippg_nsk.ippg.org/pick/P/ipggsbrasippg2021gczgx/KAW3657.HHN_smi_ippg_nsk.ippg.org/origin/ipggsbrasippg2021gczgx">
                    <azimuth>184.29</azimuth>
                    <distance>1.99949</distance>
                    <pickID>smi:ippg_nsk.ippg.org/pick/P/ipggsbrasippg2021gczgx/KAW3657.HHN</pickID>
                    <phase>P</phase>
                </arrival>
                <arrival
                        publicID="smi:org.gfz-potsdam.de/geofon/smi:ippg_nsk.ippg.org/pick/P/ipggsbrasippg2021gczgx/KAW3657.HHZ_smi_ippg_nsk.ippg.org/origin/ipggsbrasippg2021gczgx">
                    <azimuth>184.29</azimuth>
                    <distance>1.99949</distance>
                    <pickID>smi:ippg_nsk.ippg.org/pick/P/ipggsbrasippg2021gczgx/KAW3657.HHZ</pickID>
                    <phase>P</phase>
                </arrival>
                <arrival
                        publicID="smi:org.gfz-potsdam.de/geofon/smi:ippg_nsk.ippg.org/pick/P/ipggsbrasippg2021gczgx/KAST007.HHE_smi_ippg_nsk.ippg.org/origin/ipggsbrasippg2021gczgx">
                    <azimuth>152.194</azimuth>
                    <distance>6.7378</distance>
                    <pickID>smi:ippg_nsk.ippg.org/pick/P/ipggsbrasippg2021gczgx/KAST007.HHE</pickID>
                    <phase>P</phase>
                </arrival>
                <arrival
                        publicID="smi:org.gfz-potsdam.de/geofon/smi:ippg_nsk.ippg.org/pick/P/ipggsbrasippg2021gczgx/KAST007.HHN_smi_ippg_nsk.ippg.org/origin/ipggsbrasippg2021gczgx">
                    <azimuth>152.194</azimuth>
                    <distance>6.7378</distance>
                    <pickID>smi:ippg_nsk.ippg.org/pick/P/ipggsbrasippg2021gczgx/KAST007.HHN</pickID>
                    <phase>P</phase>
                </arrival>
                <arrival
                        publicID="smi:org.gfz-potsdam.de/geofon/smi:ippg_nsk.ippg.org/pick/P/ipggsbrasippg2021gczgx/KAST007.HHZ_smi_ippg_nsk.ippg.org/origin/ipggsbrasippg2021gczgx">
                    <azimuth>152.194</azimuth>
                    <distance>6.7378</distance>
                    <pickID>smi:ippg_nsk.ippg.org/pick/P/ipggsbrasippg2021gczgx/KAST007.HHZ</pickID>
                    <phase>P</phase>
                </arrival>
                <arrival
                        publicID="smi:org.gfz-potsdam.de/geofon/smi:ippg_nsk.ippg.org/pick/P/ipggsbrasippg2021gczgx/KAST006.HHE_smi_ippg_nsk.ippg.org/origin/ipggsbrasippg2021gczgx">
                    <azimuth>16.3864</azimuth>
                    <distance>2.25033</distance>
                    <pickID>smi:ippg_nsk.ippg.org/pick/P/ipggsbrasippg2021gczgx/KAST006.HHE</pickID>
                    <phase>P</phase>
                </arrival>
                <arrival
                        publicID="smi:org.gfz-potsdam.de/geofon/smi:ippg_nsk.ippg.org/pick/P/ipggsbrasippg2021gczgx/KAST006.HHN_smi_ippg_nsk.ippg.org/origin/ipggsbrasippg2021gczgx">
                    <azimuth>16.3864</azimuth>
                    <distance>2.25033</distance>
                    <pickID>smi:ippg_nsk.ippg.org/pick/P/ipggsbrasippg2021gczgx/KAST006.HHN</pickID>
                    <phase>P</phase>
                </arrival>
                <arrival
                        publicID="smi:org.gfz-potsdam.de/geofon/smi:ippg_nsk.ippg.org/pick/P/ipggsbrasippg2021gczgx/KAST006.HHZ_smi_ippg_nsk.ippg.org/origin/ipggsbrasippg2021gczgx">
                    <azimuth>16.3864</azimuth>
                    <distance>2.25033</distance>
                    <pickID>smi:ippg_nsk.ippg.org/pick/P/ipggsbrasippg2021gczgx/KAST006.HHZ</pickID>
                    <phase>P</phase>
                </arrival>
                <arrival
                        publicID="smi:org.gfz-potsdam.de/geofon/smi:ippg_nsk.ippg.org/pick/P/ipggsbrasippg2021gczgx/KAST005.HHE_smi_ippg_nsk.ippg.org/origin/ipggsbrasippg2021gczgx">
                    <azimuth>63.9889</azimuth>
                    <distance>8.92023</distance>
                    <pickID>smi:ippg_nsk.ippg.org/pick/P/ipggsbrasippg2021gczgx/KAST005.HHE</pickID>
                    <phase>P</phase>
                </arrival>
                <arrival
